MOLNIYA 2-9             
1 07276U 74026A   20126.63948893 -.00000097  00000-0 -87033-3 0  9994
2 07276  64.0180 347.2075 6810526 288.2037  12.5900  2.45094281230411
MOLNIYA 2-10            
1 07376U 74056A   20126.29593828  .00001359  00000-0  00000+0 0  9999
2 07376  63.5386 172.8524 6739059 292.6862  11.9429  2.01143635334853
MOLNIYA 1-S             
1 07392U 74060A   20127.50433372 -.00000059  00000-0  00000+0 0  9991
2 07392   6.9804 294.0817 0008660 177.7692   6.2982  1.00199239111778
MOLNIYA 1-29            
1 07780U 75036A   20126.57083543 -.00000420  00000-0 -15864-2 0  9993
2 07780  62.9470 318.0458 7386872 288.0277   9.2063  2.00633368330148
MOLNIYA 2-14            
1 08195U 75081A   20117.80361167 -.00000177  00000-0  22043-2 0  9996
2 08195  63.0603 286.1873 7306841 292.7707   8.6826  2.02048882327153
MOLNIYA 1-32            
1 08601U 76006A   20126.10995982 -.00000316  00000-0 -15669-3 0  9990
2 08601  62.6473  56.8664 7403602 278.5996  11.4478  2.00091905 37245
MOLNIYA 1-36            
1 09880U 77021A   20126.65425017 -.00001733  00000-0  35733-4 0  9993
2 09880  62.4654  28.3330 7484852 284.0720   9.6883  2.00621717213909
MOLNIYA 3-8             
1 10455U 77105A   20126.94988963 -.00001040  00000-0 -15491-2 0  9991
2 10455  62.3162 116.8616 7250790 276.1362  13.0774  2.00730879311567
MOLNIYA 1-40            
1 10925U 78055A   20126.11262429  .00000083  00000-0 -15664-1 0  9995
2 10925  62.5197 152.3194 7047147 278.0430  13.9588  2.00722376307179
MOLNIYA 3-10            
1 11057U 78095A   20127.50063912  .00000289  00000-0  88735-4 0  9995
2 11057  62.7942 333.1227 5958125 297.8612  14.7628  4.09634008352100
MOLNIYA 3-13            
1 11896U 80063A   20126.33825198 -.00000014  00000-0 -43774-2 0  9996
2 11896  62.5901 234.8066 7173470 275.4574  13.8362  2.00663493291606
MOLNIYA 1-49            
1 12156U 81009A   20126.26039053  .00000695  00000-0  31538-2 0  9994
2 12156  62.1502 280.2709 7229883 252.0083  22.7511  2.05691929205581
MOLNIYA 1-52            
1 13012U 81123A   20126.36186203  .00001115  00000-0  00000+0 0  9999
2 13012  63.5073  33.3971 7244177 248.5424  24.5498  2.00520665281133
MOLNIYA 1-53            
1 13070U 82015A   20126.54919140 -.00001153  00000-0  35005-4 0  9999
2 13070  62.3273 327.5987 7472468 275.5366  11.5477  2.00387504279753
MOLNIYA 3-20            
1 13875U 83015A   20126.48443494  .00001446  00000-0  32810-1 0  9992
2 13875  63.5402 105.9552 7130540 255.5825 325.2139  2.00696164208194
MOLNIYA 1-56            
1 13890U 83019A   20127.31640653 -.00000084  00000-0  00000+0 0  9994
2 13890  63.2342 130.7822 7108108 260.4317  28.7154  1.99957971271176
MOLNIYA 1-62            
1 15214U 84089A   20127.37036689 -.00001016  00000-0 -90694-3 0  9997
2 15214  62.7252 138.7843 7265429 264.6548  16.6913  1.97959219228979
MOLNIYA 1-63            
1 15429U 84124A   20127.38635649  .00000536  00000-0  00000+0 0  9999
2 15429  63.6948 239.6161 6606968 266.6744  24.0906  2.00337930259311
MOLNIYA 3-24            
1 15738U 85040A   20126.32135184  .00000165  00000-0  15075-1 0  9990
2 15738  63.8549 212.3369 6467148 252.4165 170.7560  2.55629899284104
MOLNIYA 3-27            
1 16393U 85117A   20127.09819762  .00000190  00000-0  00000+0 0  9997
2 16393  64.6562 169.5645 6531195 257.4658  27.2731  2.12400194257791
MOLNIYA 1-69            
1 17078U 86089A   20127.14227344  .00001011  00000-0  16234-1 0  9993
2 17078  64.1423 260.6261 6726674 266.4143  53.5306  2.00770139245318
MOLNIYA 3-31            
1 17328U 87008A   20126.28377688  .00000246  00000-0  00000-0 0  9996
2 17328  63.8303 209.8181 6695246 260.9198  23.6993  2.00661441240358
MOLNIYA 1-71            
1 18946U 88017A   20127.25944991 -.00000006  00000-0  10492-1 0  9991
2 18946  63.5144 210.5827 6822978 261.5190  19.4655  2.00584022235557
MOLNIYA 1-75            
1 19807U 89014A   20126.89008330  .00001075  00000-0 -14368-1 0  9996
2 19807  64.3240  16.6810 7052232 271.5850  15.9432  2.00384520228580
MOLNIYA 1-80            
1 21118U 91012A   20126.87676185 -.00000731  00000-0  00000-0 0  9997
2 21118  64.3119  61.3317 6861663 286.3826  12.8672  2.05252622215146
MOLNIYA 3-40            
1 21196U 91022A   20125.96693462  .00001040  00000-0  00000+0 0  9992
2 21196  64.4862  54.4113 6898520 283.3590  13.4742  2.03010614213955
MOLNIYA 1-81            
1 21426U 91043A   20126.91557621  .00000054  00000-0  00000+0 0  9997
2 21426  64.0023  80.9469 6985911 272.1757  16.3261  2.00627696211650
MOLNIYA 3-41            
1 21706U 91065A   20127.26179766 -.00000130  00000-0  51416-1 0  9996
2 21706  64.1876 246.4913 6773083 264.9902  53.6285  2.04346995211134
MOLNIYA 3-42            
1 22178U 92067A   20124.96151560 -.00000098  00000-0  00000+0 0  9993
2 22178  64.7287 305.0399 6758890 278.0808  15.8812  2.20432239207440
MOLNIYA 1-86            
1 22671U 93035A   20127.07420608  .00000018  00000-0  58556-4 0  9999
2 22671  63.1701 323.3817 4827940 356.0962   1.2313  5.62602402308794
MOLNIYA 1-87            
1 22949U 93079A   20127.13340238 -.00000901  00000-0  00000+0 0  9990
2 22949  63.3919 177.0702 6838090 289.2140  12.2659  2.02879872193613
MOLNIYA 1-88            
1 23420U 94081A   20126.68656040 -.00000054  00000-0 -24950-2 0  9992
2 23420  64.1034  15.3819 6027525 294.5166  15.5160  3.34493243 87859
MOLNIYA 3-47            
1 23642U 95042A   20126.33243030  .00001263  00000-0  24604-2 0  9996
2 23642  63.2324 160.6538 6828097 288.4970  12.4828  2.01934749181426
MOLNIYA 1-90            
1 24960U 97054A   20127.17531277 -.00000073  00000-0 -25461-3 0  9994
2 24960  63.4452 348.9516 6380589 300.6614  11.7295  3.18684130183474
MOLNIYA 1-91            
1 25485U 98054A   20127.14018607 -.00000098  00000-0  10000-3 0  9991
2 25485  62.7992 280.3637 7121729 288.7439  10.5483  2.36440075160122
MOLNIYA 3-50            
1 25847U 99036A   20126.97523917  .00000367  00000-0 -12328-2 0  9992
2 25847  62.2829  98.3277 7341129 275.1358  12.7433  2.00663186152629
